[
    {
        "CCSDS_OMM_VERS": "3.0",
        "COMMENT": "GENERATED VIA SPACE-TRACK.ORG API",
        "CREATION_DATE": "2025-05-02T17:35:09",
        "ORIGINATOR": "18 SPCS",
        "OBJECT_NAME": "COSMOS 2459 (GLONASS)",
        "OBJECT_ID": "2010-007A",
        "CENTER_NAME": "EARTH",
        "REF_FRAME": "TEME",
        "TIME_SYSTEM": "UTC",
        "MEAN_ELEMENT_THEORY": "SGP4",
        "EPOCH": "2025-05-02T04:33:56.520000",
        "MEAN_MOTION": "2.13116743",
        "ECCENTRICITY": "0.00260380",
        "INCLINATION": "65.6677",
        "RA_OF_ASC_NODE": "328.4475",
        "ARG_OF_PERICENTER": "347.6268",
        "MEAN_ANOMALY": "193.8150",
        "EPHEMERIS_TYPE": "0",
        "CLASSIFICATION_TYPE": "U",
        "NORAD_CAT_ID": "36400",
        "ELEMENT_SET_NO": "999",
        "REV_AT_EPOCH": "11806",
        "BSTAR": "0.00000000000000",
        "MEAN_MOTION_DOT": "-0.00000051",
        "MEAN_MOTION_DDOT": "0.0000000000000",
        "SEMIMAJOR_AXIS": "25506.848",
        "PERIOD": "675.686",
        "APOAPSIS": "19195.128",
        "PERIAPSIS": "19062.298",
        "OBJECT_TYPE": "PAYLOAD",
        "RCS_SIZE": "LARGE",
        "COUNTRY_CODE": "CIS",
        "LAUNCH_DATE": "2010-03-01",
        "SITE": "TTMTR",
        "DECAY_DATE": null,
        "FILE": "4716995",
        "GP_ID": "286676053",
        "TLE_LINE0": "0 COSMOS 2459 (GLONASS)",
        "TLE_LINE1": "1 36400U 10007A   25122.19023750 -.00000051  00000-0  00000-0 0  9997",
        "TLE_LINE2": "2 36400  65.6677 328.4475 0026038 347.6268 193.8150  2.13116743118061"
    }
]